NORAD_CAT_ID,OBJECT_NAME,OBJECT_TYPE,EPOCH,MEAN_MOTION,ECCENTRICITY,INCLINATION,RA_OF_ASC_NODE,ARG_OF_PERICENTER,MEAN_ANOMALY,BSTAR,MEAN_MOTION_DOT,MEAN_MOTION_DDOT,TLE_LINE0,TLE_LINE1,TLE_LINE2,SEMIMAJOR_AXIS,PERIOD,APOGEE,PERIGEE,DECAYED
53609.0,STARLINK-4660,PAYLOAD,2024-08-12 14:46:29,15.0887196,0.0001484,53.2174,295.9387,97.2705,262.8456,0.00084538,0.00013204,0.0,0 STARLINK-4660,1 53609U 22104X   24225.61561859  .00013204  00000-0  84538-3 0  9999,2 53609  53.2174 295.9387 0001484  97.2705 262.8456 15.08871960109027,6917.783,95.436,540.674,538.621,0.0
53609.0,STARLINK-4660,PAYLOAD,2024-08-13 05:04:58,15.08844393,0.0001348,53.2175,293.2581,110.0216,250.0921,4.6374e-05,4.5e-06,0.0,0 STARLINK-4660,1 53609U 22104X   24226.21178412  .00000450  00000-0  46374-4 0  9991,2 53609  53.2175 293.2581 0001348 110.0216 250.0921 15.08844393108424,6917.867,95.437,540.664,538.799,0.0
53609.0,STARLINK-4660,PAYLOAD,2024-08-13 11:26:31,15.0881371,0.0001205,53.2158,292.073,68.9868,291.1253,-0.00081559,-0.00013235,0.0,0 STARLINK-4660,1 53609U 22104X   24226.47675380 -.00013235  00000-0 -81559-3 0  9995,2 53609  53.2158 292.0730 0001205  68.9868 291.1253 15.08813710108461,6917.961,95.439,540.659,538.992,0.0
53609.0,STARLINK-4660,PAYLOAD,2024-08-13 20:58:51,15.08811553,0.000132,53.216,290.2892,70.4269,289.6866,-0.00038324,-6.377e-05,0.0,0 STARLINK-4660,1 53609U 22104X   24226.87420241 -.00006377  00000-0 -38324-3 0  9994,2 53609  53.2160 290.2892 0001320  70.4269 289.6866 15.08811553109213,6917.967,95.439,540.746,538.919,0.0
53609.0,STARLINK-4660,PAYLOAD,2024-08-14 11:17:20,15.08825754,0.0001413,53.2158,287.6133,66.5615,293.5526,0.0012489,0.00019636,0.0,0 STARLINK-4660,1 53609U 22104X   24227.47037586  .00019636  00000-0  12489-2 0  9990,2 53609  53.2158 287.6133 0001413  66.5615 293.5526 15.08825754108610,6917.924,95.438,540.766,538.811,0.0
53609.0,STARLINK-4660,PAYLOAD,2024-08-14 20:49:39,15.0883756,0.0001408,53.2157,285.8294,68.9667,291.1476,0.00090306,0.00014112,0.0,0 STARLINK-4660,1 53609U 22104X   24227.86781764  .00014112  00000-0  90306-3 0  9996,2 53609  53.2157 285.8294 0001408  68.9667 291.1476 15.08837560109363,6917.888,95.438,540.727,538.779,0.0
53609.0,STARLINK-4660,PAYLOAD,2024-08-15 09:32:44,15.08854553,0.0001419,53.2153,283.4502,69.4269,290.6875,0.00094749,0.00014829,0.0,0 STARLINK-4660,1 53609U 22104X   24228.39773463  .00014829  00000-0  94749-3 0  9992,2 53609  53.2153 283.4502 0001419  69.4269 290.6875 15.08854553109448,6917.836,95.437,540.683,538.719,0.0
53609.0,STARLINK-4660,PAYLOAD,2024-08-15 20:40:25,15.08866165,0.0001427,53.2151,281.3689,71.7327,288.3821,0.00084363,0.00013173,0.0,0 STARLINK-4660,1 53609U 22104X   24228.86140806  .00013173  00000-0  84363-3 0  9995,2 53609  53.2151 281.3689 0001427  71.7327 288.3821 15.08866165108827,6917.8,95.436,540.653,538.678,0.0
53609.0,STARLINK-4660,PAYLOAD,2024-08-16 09:23:30,15.08856067,0.0001544,53.2157,278.9905,75.5079,284.6084,0.00022248,3.256e-05,0.0,0 STARLINK-4660,1 53609U 22104X   24229.39132504  .00003256  00000-0  22248-3 0  9995,2 53609  53.2157 278.9905 0001544  75.5079 284.6084 15.08856067108901,6917.831,95.437,540.764,538.628,0.0
53609.0,STARLINK-4660,PAYLOAD,2024-08-17 07:38:54,15.08848726,0.000176,53.2166,274.8259,75.3082,284.8105,2.8403e-05,1.64e-06,0.0,0 STARLINK-4660,1 53609U 22104X   24230.31868203  .00000164  00000-0  28403-4 0  9996,2 53609  53.2166 274.8259 0001760  75.3082 284.8105 15.08848726109045,6917.854,95.437,540.936,538.501,0.0
53609.0,STARLINK-4660,PAYLOAD,2024-08-18 02:43:31,15.08846767,0.0001497,53.2153,271.2569,75.5237,284.5921,8.228e-05,1.022e-05,0.0,0 STARLINK-4660,1 53609U 22104X   24231.11356093  .00001022  00000-0  82280-4 0  9991,2 53609  53.2153 271.2569 0001497  75.5237 284.5921 15.08846767109852,6917.86,95.437,540.76,538.689,0.0
53609.0,STARLINK-4660,PAYLOAD,2024-08-18 12:15:50,15.08850076,0.000153,53.2159,269.4731,86.9087,273.208,0.00010992,1.462e-05,0.0,0 STARLINK-4660,1 53609U 22104X   24231.51099672  .00001462  00000-0  10992-3 0  9990,2 53609  53.2159 269.4731 0001530  86.9087 273.2080 15.08850076109225,6917.85,95.437,540.773,538.656,0.0
53609.0,STARLINK-4660,PAYLOAD,2024-08-19 02:34:18,15.08842651,0.0001639,53.2176,266.797,102.1957,257.9218,9.9232e-05,1.292e-05,0.0,0 STARLINK-4660,1 53609U 22104X   24232.10715729  .00001292  00000-0  99232-4 0  9990,2 53609  53.2176 266.7970 0001639 102.1957 257.9218 15.08842651109318,6917.872,95.437,540.871,538.603,0.0
53609.0,STARLINK-4660,PAYLOAD,2024-08-19 12:06:37,15.088364,0.0001424,53.2162,265.0118,95.4842,264.6312,2.0581e-05,4e-07,0.0,0 STARLINK-4660,1 53609U 22104X   24232.50460227  .00000040  00000-0  20581-4 0  9995,2 53609  53.2162 265.0118 0001424  95.4842 264.6312 15.08836400109379,6917.891,95.438,540.742,538.771,0.0
53609.0,STARLINK-4660,PAYLOAD,2024-08-20 08:46:37,15.08842996,0.0001359,53.2159,261.1464,92.952,267.1628,1.3264e-05,-7.7e-07,0.0,0 STARLINK-4660,1 53609U 22104X   24233.36571746 -.00000077  00000-0  13264-4 0  9990,2 53609  53.2159 261.1464 0001359  92.9520 267.1628 15.08842996109508,6917.871,95.437,540.676,538.796,0.0
53609.0,STARLINK-4660,PAYLOAD,2024-08-21 08:37:25,15.08833954,0.0001319,53.2156,256.686,91.8575,268.2568,5.6046e-05,6.04e-06,0.0,0 STARLINK-4660,1 53609U 22104X   24234.35932260  .00000604  00000-0  56046-4 0  9992,2 53609  53.2156 256.6860 0001319  91.8575 268.2568 15.08833954109653,6917.899,95.438,540.676,538.851,0.0
